{
  "norad_id": 55364,
  "name": "STARLINK-5627",
  "history": [
    {
      "epoch": "2026-03-28T22:00:01.999584Z",
      "apogee_km": 530.7598581922903,
      "perigee_km": 529.045973489171,
      "latitude_deg": 30.921001252775696,
      "longitude_deg": 178.48762066615868,
      "height_km": 531.3921829551571,
      "semi_major_axis_km": 6908.039915840731,
      "eccentricity": 0.00012405,
      "inclination_deg": 42.9999,
      "raan_deg": 194.5292,
      "arg_perigee_deg": 283.2152,
      "mean_anomaly_deg": 208.1223,
      "mean_motion_rev_day": 15.12065152
    },
    {
      "epoch": "2026-03-29T04:00:01.999584Z",
      "apogee_km": 531.5426673071179,
      "perigee_km": 529.9080304753697,
      "latitude_deg": 33.44933093869935,
      "longitude_deg": -8.645942094405383,
      "height_km": 532.7186903341363,
      "semi_major_axis_km": 6908.8623488912435,
      "eccentricity": 0.0001183,
      "inclination_deg": 42.9999,
      "raan_deg": 193.1471,
      "arg_perigee_deg": 235.31,
      "mean_anomaly_deg": 178.3495,
      "mean_motion_rev_day": 15.11795165
    }
  ]
}